TIANMU-1 07             
1 57399U 23101A   26065.57454230  .00008352  00000+0  29795-3 0  9991
2 57399  97.2728 118.5929 0004609 142.4105 217.7458 15.29118809145964
STARLINK-31933          
1 59874U 24098S   26068.01466107  .00002962  00000+0  11716-3 0  9990
2 59874  42.9985 281.7463 0000885 283.3365  76.7387 15.27564911101746
